[
  {
    "name": "ONEWEB-0490",
    "noradId": "54113",
    "line1": "1 54113U 22138A   26195.73189433 -.00000043  00000+0 -14008-3 0  9995",
    "line2": "2 54113  87.9192 299.4836 0002055 106.3537 253.7822 13.19726436180460"
  },
  {
    "name": "ONEWEB-0492",
    "noradId": "54114",
    "line1": "1 54114U 22138B   26195.83296963 -.00000208  00000+0 -55301-3 0  9998",
    "line2": "2 54114  87.9184 299.4629 0002227 104.3088 255.8292 13.19725166180487"
  },
  {
    "name": "ONEWEB-0495",
    "noradId": "54115",
    "line1": "1 54115U 22138C   26195.81087192  .00000373  00000+0  90038-3 0  9996",
    "line2": "2 54115  87.9186 299.4699 0002202 118.6906 241.4449 13.19724230180461"
  },
  {
    "name": "ONEWEB-0497",
    "noradId": "54116",
    "line1": "1 54116U 22138D   26195.82348889 -.00002087  00000+0 -52448-2 0  9999",
    "line2": "2 54116  87.9191 299.4610 0002048 106.6204 253.5154 13.19735018180459"
  },
  {
    "name": "ONEWEB-0499",
    "noradId": "54117",
    "line1": "1 54117U 22138E   26195.80691825  .00000031  00000+0  44235-4 0  9991",
    "line2": "2 54117  87.9183 299.4719 0001958 108.5502 251.5844 13.19724251180464"
  },
  {
    "name": "ONEWEB-0500",
    "noradId": "54118",
    "line1": "1 54118U 22138F   26195.80929823 -.00000057  00000+0 -17421-3 0  9990",
    "line2": "2 54118  87.9192 299.4673 0002076  98.4349 261.7019 13.19726035180472"
  },
  {
    "name": "ONEWEB-0501",
    "noradId": "54119",
    "line1": "1 54119U 22138G   26195.83931336 -.00000022  00000+0 -86223-4 0  9995",
    "line2": "2 54119  87.9193 299.4615 0002086 113.0108 247.1245 13.19725895180458"
  },
  {
    "name": "ONEWEB-0502",
    "noradId": "54120",
    "line1": "1 54120U 22138H   26195.82507038 -.00000787  00000+0 -19973-2 0  9998",
    "line2": "2 54120  87.9190 299.4533 0001917 108.3679 251.7662 13.19735638180470"
  },
  {
    "name": "ONEWEB-0503",
    "noradId": "54121",
    "line1": "1 54121U 22138J   26195.81402988 -.00000033  00000+0 -11433-3 0  9994",
    "line2": "2 54121  87.9197 299.4618 0001740  97.9417 262.1913 13.19726429180461"
  },
  {
    "name": "ONEWEB-0504",
    "noradId": "54122",
    "line1": "1 54122U 22138K   26195.80139448 -.00000014  00000+0 -67431-4 0  9991",
    "line2": "2 54122  87.9192 299.4690 0001890 108.1446 251.9892 13.19726472180471"
  },
  {
    "name": "ONEWEB-0505",
    "noradId": "54123",
    "line1": "1 54123U 22138L   26195.79821691 -.00000226  00000+0 -59777-3 0  9996",
    "line2": "2 54123  87.9191 299.4702 0001935 114.8113 245.3221 13.19725140180452"
  },
  {
    "name": "ONEWEB-0506",
    "noradId": "54124",
    "line1": "1 54124U 22138M   26195.84879226  .00000086  00000+0  18326-3 0  9997",
    "line2": "2 54124  87.9196 299.4576 0002020 110.5685 249.5665 13.19725405180452"
  },
  {
    "name": "ONEWEB-0507",
    "noradId": "54125",
    "line1": "1 54125U 22138N   26195.79349352 -.00000033  00000+0 -11539-3 0  9997",
    "line2": "2 54125  87.9185 299.4780 0002067 106.5850 253.5510 13.19726744180493"
  },
  {
    "name": "ONEWEB-0508",
    "noradId": "54126",
    "line1": "1 54126U 22138P   26195.79034087 -.00000205  00000+0 -54415-3 0  9995",
    "line2": "2 54126  87.9183 299.4784 0002207 111.9578 248.1789 13.19727772180477"
  },
  {
    "name": "ONEWEB-0509",
    "noradId": "54127",
    "line1": "1 54127U 22138Q   26195.84087757 -.00000050  00000+0 -15692-3 0  9996",
    "line2": "2 54127  87.9196 299.4605 0002040 105.7105 254.4253 13.19724002180453"
  },
  {
    "name": "ONEWEB-0510",
    "noradId": "54128",
    "line1": "1 54128U 22138R   26195.70748007  .00000069  00000+0  13812-3 0  9994",
    "line2": "2 54128  87.9182 268.9533 0002015  88.2910 271.8454 13.20769039182911"
  },
  {
    "name": "ONEWEB-0511",
    "noradId": "54129",
    "line1": "1 54129U 22138S   26195.83770988  .00000002  00000+0 -28291-4 0  9998",
    "line2": "2 54129  87.9191 299.4628 0001741 103.8980 256.2346 13.19723618180480"
  },
  {
    "name": "ONEWEB-0512",
    "noradId": "54130",
    "line1": "1 54130U 22138T   26195.82981432 -.00000056  00000+0 -17322-3 0  9999",
    "line2": "2 54130  87.9184 299.4675 0001895 111.3962 248.7373 13.19726574180457"
  },
  {
    "name": "ONEWEB-0513",
    "noradId": "54131",
    "line1": "1 54131U 22138U   26195.82406469 -.00000038  00000+0 -12674-3 0  9997",
    "line2": "2 54131  87.9192 299.4096 0001560 127.5775 232.5500 13.20269524180366"
  },
  {
    "name": "ONEWEB-0514",
    "noradId": "54132",
    "line1": "1 54132U 22138V   26195.84561671  .00000037  00000+0  60772-4 0  9997",
    "line2": "2 54132  87.9193 299.4606 0001964  97.1389 262.9967 13.19726305180475"
  },
  {
    "name": "ONEWEB-0515",
    "noradId": "54133",
    "line1": "1 54133U 22138W   26195.76978505  .00000071  00000+0  14310-3 0  9991",
    "line2": "2 54133  87.9190 268.9355 0002794  87.3839 272.7615 13.20771922182948"
  },
  {
    "name": "ONEWEB-0516",
    "noradId": "54134",
    "line1": "1 54134U 22138X   26195.82033730 -.00000055  00000+0 -16992-3 0  9993",
    "line2": "2 54134  87.9185 299.4697 0002131 102.9323 257.2047 13.19724028180474"
  },
  {
    "name": "ONEWEB-0517",
    "noradId": "54135",
    "line1": "1 54135U 22138Y   26195.79981493 -.00000050  00000+0 -15628-3 0  9998",
    "line2": "2 54135  87.9193 299.4682 0001725  97.6402 262.4926 13.19725772180475"
  },
  {
    "name": "ONEWEB-0518",
    "noradId": "54136",
    "line1": "1 54136U 22138Z   26195.81876397 -.00000043  00000+0 -13984-3 0  9993",
    "line2": "2 54136  87.9185 299.4722 0002215 102.5012 257.6368 13.19723934180474"
  },
  {
    "name": "ONEWEB-0519",
    "noradId": "54137",
    "line1": "1 54137U 22138AA  26195.84402647  .00000043  00000+0  75947-4 0  9996",
    "line2": "2 54137  87.9192 299.4603 0001827  98.9935 261.1404 13.19723531180486"
  },
  {
    "name": "ONEWEB-0520",
    "noradId": "54138",
    "line1": "1 54138U 22138AB  26195.80297368 -.00000037  00000+0 -12497-3 0  9990",
    "line2": "2 54138  87.9194 299.4692 0002086 109.3664 250.7695 13.19726218180460"
  },
  {
    "name": "ONEWEB-0521",
    "noradId": "54139",
    "line1": "1 54139U 22138AC  26195.83612816  .00000015  00000+0  61832-5 0  9996",
    "line2": "2 54139  87.9197 299.4512 0001825  97.3692 262.7648 13.19726935180414"
  },
  {
    "name": "ONEWEB-0522",
    "noradId": "54140",
    "line1": "1 54140U 22138AD  26195.81559398 -.00000002  00000+0 -36304-4 0  9994",
    "line2": "2 54140  87.9196 299.4581 0001953 105.8402 254.2946 13.19723247180451"
  },
  {
    "name": "ONEWEB-0523",
    "noradId": "54141",
    "line1": "1 54141U 22138AE  26195.75629897  .00000094  00000+0  19964-3 0  9991",
    "line2": "2 54141  87.9188 268.9475 0002301  79.1257 281.0135 13.20772815182946"
  },
  {
    "name": "ONEWEB-0524",
    "noradId": "54142",
    "line1": "1 54142U 22138AF  26195.74620273 -.00000048  00000+0 -14886-3 0  9999",
    "line2": "2 54142  87.9187 268.9462 0002912  92.7533 267.3934 13.20772671182942"
  }
]