OBJECT_NAME,OBJECT_ID,EPOCH,MEAN_MOTION,ECCENTRICITY,INCLINATION,RA_OF_ASC_NODE,ARG_OF_PERICENTER,MEAN_ANOMALY,EPHEMERIS_TYPE,CLASSIFICATION_TYPE,NORAD_CAT_ID,ELEMENT_SET_NO,REV_AT_EPOCH,BSTAR,MEAN_MOTION_DOT,MEAN_MOTION_DDOT
ONEWEB-0490,2022-138A,2026-07-14T17:33:55.670112,13.19726436,.0002055,87.9192,299.4836,106.3537,253.7822,0,U,54113,999,18046,-.14008E-3,-.43E-6,0
ONEWEB-0492,2022-138B,2026-07-14T19:59:28.576032,13.19725166,.0002227,87.9184,299.4629,104.3088,255.8292,0,U,54114,999,18048,-.55301E-3,-.208E-5,0
ONEWEB-0495,2022-138C,2026-07-14T19:27:39.333888,13.19724230,.0002202,87.9186,299.4699,118.6906,241.4449,0,U,54115,999,18046,.90038E-3,.373E-5,0
ONEWEB-0497,2022-138D,2026-07-14T19:45:49.440096,13.19735018,.0002048,87.9191,299.4610,106.6204,253.5154,0,U,54116,999,18045,-.52448E-2,-.2087E-4,0
ONEWEB-0499,2022-138E,2026-07-14T19:21:57.736800,13.19724251,.0001958,87.9183,299.4719,108.5502,251.5844,0,U,54117,999,18046,.44235E-4,.31E-6,0
ONEWEB-0500,2022-138F,2026-07-14T19:25:23.367072,13.19726035,.0002076,87.9192,299.4673,98.4349,261.7019,0,U,54118,999,18047,-.17421E-3,-.57E-6,0
ONEWEB-0501,2022-138G,2026-07-14T20:08:36.674304,13.19725895,.0002086,87.9193,299.4615,113.0108,247.1245,0,U,54119,999,18045,-.86223E-4,-.22E-6,0
ONEWEB-0502,2022-138H,2026-07-14T19:48:06.080832,13.19735638,.0001917,87.9190,299.4533,108.3679,251.7662,0,U,54120,999,18047,-.19973E-2,-.787E-5,0
ONEWEB-0503,2022-138J,2026-07-14T19:32:12.181632,13.19726429,.000174,87.9197,299.4618,97.9417,262.1913,0,U,54121,999,18046,-.11433E-3,-.33E-6,0
ONEWEB-0504,2022-138K,2026-07-14T19:14:00.483072,13.19726472,.000189,87.9192,299.4690,108.1446,251.9892,0,U,54122,999,18047,-.67431E-4,-.14E-6,0
ONEWEB-0505,2022-138L,2026-07-14T19:09:25.941024,13.19725140,.0001935,87.9191,299.4702,114.8113,245.3221,0,U,54123,999,18045,-.59777E-3,-.226E-5,0
ONEWEB-0506,2022-138M,2026-07-14T20:22:15.651264,13.19725405,.000202,87.9196,299.4576,110.5685,249.5665,0,U,54124,999,18045,.18326E-3,.86E-6,0
ONEWEB-0507,2022-138N,2026-07-14T19:02:37.840128,13.19726744,.0002067,87.9185,299.4780,106.5850,253.5510,0,U,54125,999,18049,-.11539E-3,-.33E-6,0
ONEWEB-0508,2022-138P,2026-07-14T18:58:05.451168,13.19727772,.0002207,87.9183,299.4784,111.9578,248.1789,0,U,54126,999,18047,-.54415E-3,-.205E-5,0
ONEWEB-0509,2022-138Q,2026-07-14T20:10:51.822048,13.19724002,.000204,87.9196,299.4605,105.7105,254.4253,0,U,54127,999,18045,-.15692E-3,-.5E-6,0
ONEWEB-0510,2022-138R,2026-07-14T16:58:46.278048,13.20769039,.0002015,87.9182,268.9533,88.2910,271.8454,0,U,54128,999,18291,.13812E-3,.69E-6,0
ONEWEB-0511,2022-138S,2026-07-14T20:06:18.133632,13.19723618,.0001741,87.9191,299.4628,103.8980,256.2346,0,U,54129,999,18048,-.28291E-4,.2E-7,0
ONEWEB-0512,2022-138T,2026-07-14T19:54:55.957248,13.19726574,.0001895,87.9184,299.4675,111.3962,248.7373,0,U,54130,999,18045,-.17322E-3,-.56E-6,0
ONEWEB-0513,2022-138U,2026-07-14T19:46:39.189216,13.20269524,.000156,87.9192,299.4096,127.5775,232.5500,0,U,54131,999,18036,-.12674E-3,-.38E-6,0
ONEWEB-0514,2022-138V,2026-07-14T20:17:41.283744,13.19726305,.0001964,87.9193,299.4606,97.1389,262.9967,0,U,54132,999,18047,.60772E-4,.37E-6,0
ONEWEB-0515,2022-138W,2026-07-14T18:28:29.428320,13.20771922,.0002794,87.9190,268.9355,87.3839,272.7615,0,U,54133,999,18294,.1431E-3,.71E-6,0
ONEWEB-0516,2022-138X,2026-07-14T19:41:17.142720,13.19724028,.0002131,87.9185,299.4697,102.9323,257.2047,0,U,54134,999,18047,-.16992E-3,-.55E-6,0
ONEWEB-0517,2022-138Y,2026-07-14T19:11:44.009952,13.19725772,.0001725,87.9193,299.4682,97.6402,262.4926,0,U,54135,999,18047,-.15628E-3,-.5E-6,0
ONEWEB-0518,2022-138Z,2026-07-14T19:39:01.207008,13.19723934,.0002215,87.9185,299.4722,102.5012,257.6368,0,U,54136,999,18047,-.13984E-3,-.43E-6,0
ONEWEB-0519,2022-138AA,2026-07-14T20:15:23.887008,13.19723531,.0001827,87.9192,299.4603,98.9935,261.1404,0,U,54137,999,18048,.75947E-4,.43E-6,0
ONEWEB-0520,2022-138AB,2026-07-14T19:16:16.925952,13.19726218,.0002086,87.9194,299.4692,109.3664,250.7695,0,U,54138,999,18046,-.12497E-3,-.37E-6,0
ONEWEB-0521,2022-138AC,2026-07-14T20:04:01.473024,13.19726935,.0001825,87.9197,299.4512,97.3692,262.7648,0,U,54139,999,18041,.61832E-5,.15E-6,0
ONEWEB-0522,2022-138AD,2026-07-14T19:34:27.319872,13.19723247,.0001953,87.9196,299.4581,105.8402,254.2946,0,U,54140,999,18045,-.36304E-4,-.2E-7,0
ONEWEB-0523,2022-138AE,2026-07-14T18:09:04.231008,13.20772815,.0002301,87.9188,268.9475,79.1257,281.0135,0,U,54141,999,18294,.19964E-3,.94E-6,0
ONEWEB-0524,2022-138AF,2026-07-14T17:54:31.915872,13.20772671,.0002912,87.9187,268.9462,92.7533,267.3934,0,U,54142,999,18294,-.14886E-3,-.48E-6,0
